[{"OBJECT_NAME":"BRO-5","OBJECT_ID":"2022-002CF","EPOCH":"2026-03-09T23:19:32.219616","MEAN_MOTION":15.4340572,"ECCENTRICITY":0.00041977,"INCLINATION":97.3085,"RA_OF_ASC_NODE":142.0551,"ARG_OF_PERICENTER":346.2152,"MEAN_ANOMALY":13.8981,"EPHEMERIS_TYPE":0,"CLASSIFICATION_TYPE":"U","NORAD_CAT_ID":51061,"ELEMENT_SET_NO":999,"REV_AT_EPOCH":23093,"BSTAR":0.00033168955,"MEAN_MOTION_DOT":0.00014745,"MEAN_MOTION_DDOT":0},{"OBJECT_NAME":"SL-3 R\/B","OBJECT_ID":"1977-057B","EPOCH":"2026-03-09T21:55:03.006336","MEAN_MOTION":15.45501116,"ECCENTRICITY":0.00061593,"INCLINATION":97.5777,"RA_OF_ASC_NODE":240.8437,"ARG_OF_PERICENTER":284.2853,"MEAN_ANOMALY":75.7711,"EPHEMERIS_TYPE":0,"CLASSIFICATION_TYPE":"U","NORAD_CAT_ID":10114,"ELEMENT_SET_NO":999,"REV_AT_EPOCH":66836,"BSTAR":0.00032201204,"MEAN_MOTION_DOT":0.00015369,"MEAN_MOTION_DDOT":0}]
